start=new Date('2022-07-27T00:00:00.000Z').valueOf();
sats=[{"SITE":"AFETR","MEAN_MOTION_DDOT":"0.0000000000000","LAUNCH_DATE":"2020-01-07","CENTER_NAME":"EARTH","EPHEMERIS_TYPE":"0","CLASSIFICATION_TYPE":"U","OBJECT_TYPE":"PAYLOAD","MEAN_MOTION_DOT":"0.00000274","COUNTRY_CODE":"US","OBJECT_NAME":"STARLINK-1066","REF_FRAME":"TEME","INCLINATION":"53.0562","ARG_OF_PERICENTER":"66.8140","MEAN_MOTION":"15.06394150","OBJECT_ID":"2020-001AS","ECCENTRICITY":"0.00014900","TLE_LINE1":"1 44954U 20001AS  22207.67647854  .00000274  00000-0  37271-4 0  9996","ELEMENT_SET_NO":"999","MEAN_ANOMALY":"293.3006","DECAY_DATE":null,"EPOCH":"2022-07-26T16:14:07.745856","PERIOD":"95.593","NORAD_CAT_ID":"44954","PERIAPSIS":"546.200","TLE_LINE2":"2 44954  53.0562 121.3695 0001490  66.8140 293.3006 15.06394150141097","SEMIMAJOR_AXIS":"6925.366","BSTAR":"0.00003727100000","REV_AT_EPOCH":"14109","GP_ID":"208927308","APOAPSIS":"548.263","RCS_SIZE":"LARGE","RA_OF_ASC_NODE":"121.3695","FILE":"3522469","TIME_SYSTEM":"UTC","MEAN_ELEMENT_THEORY":"SGP4"},{"PERIAPSIS":"545.845","PERIOD":"95.592","NORAD_CAT_ID":"44955","EPOCH":"2022-07-26T18:00:17.597952","DECAY_DATE":null,"MEAN_ANOMALY":"296.5808","ELEMENT_SET_NO":"999","TLE_LINE1":"1 44955U 20001AT  22207.75020368  .00001487  00000-0  11874-3 0  9998","MEAN_ELEMENT_THEORY":"SGP4","RCS_SIZE":"LARGE","RA_OF_ASC_NODE":"121.0373","TIME_SYSTEM":"UTC","FILE":"3522469","GP_ID":"208926058","APOAPSIS":"548.602","BSTAR":"0.00011874000000","REV_AT_EPOCH":"14110","SEMIMAJOR_AXIS":"6925.359","TLE_LINE2":"2 44955  53.0538 121.0373 0001991  63.5385 296.5808 15.06396710141103","OBJECT_TYPE":"PAYLOAD","EPHEMERIS_TYPE":"0","CLASSIFICATION_TYPE":"U","CENTER_NAME":"EARTH","LAUNCH_DATE":"2020-01-07","MEAN_MOTION_DDOT":"0.0000000000000","SITE":"AFETR","OBJECT_ID":"2020-001AT","ECCENTRICITY":"0.00019910","ARG_OF_PERICENTER":"63.5385","MEAN_MOTION":"15.06396710","REF_FRAME":"TEME","INCLINATION":"53.0538","OBJECT_NAME":"STARLINK-1069","COUNTRY_CODE":"US","MEAN_MOTION_DOT":"0.00001487"},{"PERIOD":"95.591","NORAD_CAT_ID":"44956","PERIAPSIS":"546.098","DECAY_DATE":null,"EPOCH":"2022-07-26T19:29:09.474144","MEAN_ANOMALY":"279.0456","TLE_LINE1":"1 44956U 20001AU  22207.81191521  .00007262  00000-0  50575-3 0  9994","ELEMENT_SET_NO":"999","MEAN_ELEMENT_THEORY":"SGP4","GP_ID":"208926808","APOAPSIS":"548.264","RA_OF_ASC_NODE":"120.7469","RCS_SIZE":"LARGE","TIME_SYSTEM":"UTC","FILE":"3522469","TLE_LINE2":"2 44956  53.0525 120.7469 0001564  81.0710 279.0456 15.06410587141176","SEMIMAJOR_AXIS":"6925.316","BSTAR":"0.00050575000000","REV_AT_EPOCH":"14117","CLASSIFICATION_TYPE":"U","EPHEMERIS_TYPE":"0","OBJECT_TYPE":"PAYLOAD","CENTER_NAME":"EARTH","SITE":"AFETR","MEAN_MOTION_DDOT":"0.0000000000000","LAUNCH_DATE":"2020-01-07","ARG_OF_PERICENTER":"81.0710","MEAN_MOTION":"15.06410587","OBJECT_ID":"2020-001AU","ECCENTRICITY":"0.00015640","COUNTRY_CODE":"US","OBJECT_NAME":"STARLINK-1070","REF_FRAME":"TEME","INCLINATION":"53.0525","MEAN_MOTION_DOT":"0.00007262"},{"OBJECT_ID":"2020-001AV","ECCENTRICITY":"0.00015670","ARG_OF_PERICENTER":"73.5980","MEAN_MOTION":"15.06406329","REF_FRAME":"TEME","INCLINATION":"53.0541","OBJECT_NAME":"STARLINK-1074","COUNTRY_CODE":"US","MEAN_MOTION_DOT":"0.00000893","OBJECT_TYPE":"PAYLOAD","CLASSIFICATION_TYPE":"U","EPHEMERIS_TYPE":"0","CENTER_NAME":"EARTH","LAUNCH_DATE":"2020-01-07","MEAN_MOTION_DDOT":"0.0000000000000","SITE":"AFETR","MEAN_ELEMENT_THEORY":"SGP4","RA_OF_ASC_NODE":"120.6300","RCS_SIZE":"LARGE","FILE":"3522469","TIME_SYSTEM":"UTC","GP_ID":"208927059","APOAPSIS":"548.279","BSTAR":"0.00007881400000","REV_AT_EPOCH":"14117","TLE_LINE2":"2 44957  53.0541 120.6300 0001567  73.5980 286.5181 15.06406329141173","SEMIMAJOR_AXIS":"6925.329","PERIAPSIS":"546.109","PERIOD":"95.592","NORAD_CAT_ID":"44957","EPOCH":"2022-07-26T20:06:17.741376","DECAY_DATE":null,"MEAN_ANOMALY":"286.5181","ELEMENT_SET_NO":"999","TLE_LINE1":"1 44957U 20001AV  22207.83770534  .00000893  00000-0  78814-4 0  9994"},{"MEAN_ELEMENT_THEORY":"SGP4","APOAPSIS":"548.502","GP_ID":"208927809","FILE":"3522469","TIME_SYSTEM":"UTC","RCS_SIZE":"LARGE","RA_OF_ASC_NODE":"120.8653","SEMIMAJOR_AXIS":"6925.393","TLE_LINE2":"2 44959  53.0549 120.8653 0001796  49.2515 310.8630 15.06385540141164","REV_AT_EPOCH":"14116","BSTAR":"0.00006734200000","NORAD_CAT_ID":"44959","PERIOD":"95.593","PERIAPSIS":"546.014","DECAY_DATE":null,"EPOCH":"2022-07-26T18:53:22.756416","MEAN_ANOMALY":"310.8630","TLE_LINE1":"1 44959U 20001AX  22207.78706894  .00000721  00000-0  67342-4 0  9992","ELEMENT_SET_NO":"999","MEAN_MOTION":"15.06385540","ARG_OF_PERICENTER":"49.2515","ECCENTRICITY":"0.00017960","OBJECT_ID":"2020-001AX","OBJECT_NAME":"STARLINK-1076","COUNTRY_CODE":"US","INCLINATION":"53.0549","REF_FRAME":"TEME","MEAN_MOTION_DOT":"0.00000721","CLASSIFICATION_TYPE":"U","EPHEMERIS_TYPE":"0","OBJECT_TYPE":"PAYLOAD","CENTER_NAME":"EARTH","MEAN_MOTION_DDOT":"0.0000000000000","SITE":"AFETR","LAUNCH_DATE":"2020-01-07"},{"MEAN_MOTION_DOT":"0.00001454","COUNTRY_CODE":"US","OBJECT_NAME":"STARLINK-1080","REF_FRAME":"TEME","INCLINATION":"53.0535","ARG_OF_PERICENTER":"76.5426","MEAN_MOTION":"15.06392779","OBJECT_ID":"2020-001AZ","ECCENTRICITY":"0.00015480","SITE":"AFETR","MEAN_MOTION_DDOT":"0.0000000000000","LAUNCH_DATE":"2020-01-07","CENTER_NAME":"EARTH","EPHEMERIS_TYPE":"0","CLASSIFICATION_TYPE":"U","OBJECT_TYPE":"PAYLOAD","TLE_LINE2":"2 44961  53.0535 120.8477 0001548  76.5426 283.5735 15.06392779141170","SEMIMAJOR_AXIS":"6925.371","BSTAR":"0.00011648000000","REV_AT_EPOCH":"14117","GP_ID":"208926558","APOAPSIS":"548.308","RA_OF_ASC_NODE":"120.8477","RCS_SIZE":"LARGE","FILE":"3522469","TIME_SYSTEM":"UTC","MEAN_ELEMENT_THEORY":"SGP4","TLE_LINE1":"1 44961U 20001AZ  22207.79443934  .00001454  00000-0  11648-3 0  9990","ELEMENT_SET_NO":"999","MEAN_ANOMALY":"283.5735","DECAY_DATE":null,"EPOCH":"2022-07-26T19:03:59.558976","PERIOD":"95.593","NORAD_CAT_ID":"44961","PERIAPSIS":"546.164"},{"EPHEMERIS_TYPE":"0","CLASSIFICATION_TYPE":"U","OBJECT_TYPE":"PAYLOAD","CENTER_NAME":"EARTH","MEAN_MOTION_DDOT":"0.0000000000000","SITE":"AFETR","LAUNCH_DATE":"2020-01-07","ARG_OF_PERICENTER":"87.9018","MEAN_MOTION":"15.16824332","OBJECT_ID":"2020-001BB","ECCENTRICITY":"0.00021630","OBJECT_NAME":"STARLINK-1085","COUNTRY_CODE":"US","REF_FRAME":"TEME","INCLINATION":"52.9981","MEAN_MOTION_DOT":"0.00014125","PERIOD":"94.935","NORAD_CAT_ID":"44963","PERIAPSIS":"513.957","DECAY_DATE":null,"EPOCH":"2022-07-26T20:54:51.716160","MEAN_ANOMALY":"272.2222","TLE_LINE1":"1 44963U 20001BB  22207.87143190  .00014125  00000-0  72404-3 0  9998","ELEMENT_SET_NO":"999","MEAN_ELEMENT_THEORY":"SGP4","GP_ID":"208926309","APOAPSIS":"516.939","RA_OF_ASC_NODE":"105.2281","RCS_SIZE":"LARGE","FILE":"3522469","TIME_SYSTEM":"UTC","TLE_LINE2":"2 44963  52.9981 105.2281 0002163  87.9018 272.2222 15.16824332142096","SEMIMAJOR_AXIS":"6893.583","BSTAR":"0.00072404000000","REV_AT_EPOCH":"14209"},{"ARG_OF_PERICENTER":"76.4488","MEAN_MOTION":"15.06402189","OBJECT_ID":"2020-001BC","ECCENTRICITY":"0.00014120","COUNTRY_CODE":"US","OBJECT_NAME":"STARLINK-1086","REF_FRAME":"TEME","INCLINATION":"53.0537","MEAN_MOTION_DOT":"0.00003465","CLASSIFICATION_TYPE":"U","EPHEMERIS_TYPE":"0","OBJECT_TYPE":"PAYLOAD","CENTER_NAME":"EARTH","MEAN_MOTION_DDOT":"0.0000000000000","SITE":"AFETR","LAUNCH_DATE":"2020-01-07","MEAN_ELEMENT_THEORY":"SGP4","GP_ID":"208896498","APOAPSIS":"548.185","RA_OF_ASC_NODE":"123.0789","RCS_SIZE":"LARGE","FILE":"3522226","TIME_SYSTEM":"UTC","SEMIMAJOR_AXIS":"6925.342","TLE_LINE2":"2 44964  53.0537 123.0789 0001412  76.4488 283.6658 15.06402189141096","BSTAR":"0.00025135000000","REV_AT_EPOCH":"14109","PERIOD":"95.592","NORAD_CAT_ID":"44964","PERIAPSIS":"546.229","DECAY_DATE":null,"EPOCH":"2022-07-26T07:02:06.965952","MEAN_ANOMALY":"283.6658","TLE_LINE1":"1 44964U 20001BC  22207.29313618  .00003465  00000-0  25135-3 0  9993","ELEMENT_SET_NO":"999"},{"APOAPSIS":"548.181","GP_ID":"208927309","TIME_SYSTEM":"UTC","FILE":"3522469","RCS_SIZE":"LARGE","RA_OF_ASC_NODE":"120.6201","MEAN_ELEMENT_THEORY":"SGP4","SEMIMAJOR_AXIS":"6925.365","TLE_LINE2":"2 44966  53.0557 120.6201 0001374  75.9919 284.1223 15.06394690141172","REV_AT_EPOCH":"14117","BSTAR":"0.00007519900000","DECAY_DATE":null,"EPOCH":"2022-07-26T20:18:17.840448","NORAD_CAT_ID":"44966","PERIOD":"95.592","PERIAPSIS":"546.278","TLE_LINE1":"1 44966U 20001BE  22207.84603982  .00000839  00000-0  75199-4 0  9990","ELEMENT_SET_NO":"999","MEAN_ANOMALY":"284.1223","MEAN_MOTION":"15.06394690","ARG_OF_PERICENTER":"75.9919","ECCENTRICITY":"0.00013740","OBJECT_ID":"2020-001BE","MEAN_MOTION_DOT":"0.00000839","COUNTRY_CODE":"US","OBJECT_NAME":"STARLINK-1088","INCLINATION":"53.0557","REF_FRAME":"TEME","EPHEMERIS_TYPE":"0","CLASSIFICATION_TYPE":"U","OBJECT_TYPE":"PAYLOAD","SITE":"AFETR","MEAN_MOTION_DDOT":"0.0000000000000","LAUNCH_DATE":"2020-01-07","CENTER_NAME":"EARTH"},{"CLASSIFICATION_TYPE":"U","EPHEMERIS_TYPE":"0","OBJECT_TYPE":"PAYLOAD","CENTER_NAME":"EARTH","SITE":"AFETR","MEAN_MOTION_DDOT":"0.0000000000000","LAUNCH_DATE":"2020-01-07","MEAN_MOTION":"15.06385718","ARG_OF_PERICENTER":"73.3752","ECCENTRICITY":"0.00015170","OBJECT_ID":"2020-001BF","COUNTRY_CODE":"US","OBJECT_NAME":"STARLINK-1089","INCLINATION":"53.0540","REF_FRAME":"TEME","MEAN_MOTION_DOT":"-0.00000929","NORAD_CAT_ID":"44967","PERIOD":"95.593","PERIAPSIS":"546.207","DECAY_DATE":null,"EPOCH":"2022-07-26T17:39:04.126752","MEAN_ANOMALY":"286.7403","TLE_LINE1":"1 44967U 20001BF  22207.73546443 -.00000929  00000-0 -43465-4 0  9990","ELEMENT_SET_NO":"999","MEAN_ELEMENT_THEORY":"SGP4","APOAPSIS":"548.308","GP_ID":"208926059","TIME_SYSTEM":"UTC","FILE":"3522469","RCS_SIZE":"LARGE","RA_OF_ASC_NODE":"121.1013","SEMIMAJOR_AXIS":"6925.392","TLE_LINE2":"2 44967  53.0540 121.1013 0001517  73.3752 286.7403 15.06385718141166","REV_AT_EPOCH":"14116","BSTAR":"-0.00004346500000"}];
